COSMOS 2419 (714)       
1 28915U 05050A   17102.76537270 -.00000025  00000-0  00000-0 0  9991
2 28915  65.4663  68.0556 0017302 346.6705 304.0457  2.13110315 87938
COSMOS 2425 (716)       
1 29670U 06062A   17102.77644369 -.00000022  00000-0  10000-3 0  9994
2 29670  65.4941 307.0672 0022174 351.1360   1.1293  2.13104865 80133
COSMOS 2426 (717)       
1 29671U 06062B   17102.62124832 -.00000022  00000-0  10000-3 0  9997
2 29671  65.5103 307.1600 0016515 157.9599 294.0501  2.13102990 80148
COSMOS 2424 (715)       
1 29672U 06062C   17102.44107963 -.00000021  00000-0  10000-3 0  9993
2 29672  65.4961 307.0897 0016369 155.9430 333.3063  2.13102132 80133
COSMOS 2433 (720)       
1 32275U 07052A   17102.65749061 -.00000026  00000-0  10000-3 0  9995
2 32275  65.4814  67.8354 0004950 288.1412 165.0407  2.13104709 73657
COSMOS 2432 (719)       
1 32276U 07052B   17102.61301917 -.00000026  00000-0  10000-3 0  9996
2 32276  65.4931  67.9064 0014006 331.1439  40.9349  2.13104076 73651
COSMOS 2434 (721)       
1 32393U 07065A   17102.70534368 -.00000022  00000-0  00000-0 0  9990
2 32393  65.1096 306.2500 0005619  90.9641 288.8526  2.13102826 72367
COSMOS 2436 (723)       
1 32395U 07065C   17102.74190448 -.00000022  00000-0  10000-3 0  9997
2 32395  65.1184 306.2944 0016306   6.9215  89.3022  2.13104208 72291
COSMOS 2443 (725)       
1 33379U 08046B   17102.55649075 -.00000027  00000-0  00000-0 0  9995
2 33379  65.4109  67.2281 0015741 187.7159  89.4474  2.13101997 66511
COSMOS 2456 (730)       
1 36111U 09070A   17102.59838441  .00000022  00000-0  00000-0 0  9995
2 36111  64.1786 185.8183 0004581 311.9596 156.6628  2.13102809 57026
COSMOS 2457 (733)       
1 36112U 09070B   17102.68565699  .00000022  00000-0  00000-0 0  9998
2 36112  64.1611 185.7359 0006371 169.8685 134.5750  2.13101520 57026
COSMOS 2458 (734)       
1 36113U 09070C   17102.72688183  .00000022  00000-0  10000-3 0  9992
2 36113  64.1664 185.7429 0001416 358.4436  25.5103  2.13102086 57038
COSMOS 2459 (731)       
1 36400U 10007A   17102.63171831 -.00000027  00000-0  10000-3 0  9996
2 36400  65.3899  66.9498 0029717 349.1874 306.8446  2.13102252 55378
COSMOS 2461 (735)       
1 36401U 10007B   17102.69190837 -.00000027  00000-0  10000-3 0  9990
2 36401  65.3828  66.9268 0005718  42.2507 210.5480  2.13102253 55375
COSMOS 2460 (732)       
1 36402U 10007C   17102.69208704 -.00000027  00000-0  10000-3 0  9994
2 36402  65.3731  66.9008 0002868 314.5687 339.7805  2.13101765 55370
COSMOS 2465 (737)       
1 37138U 10041B   17102.74335073 -.00000023  00000-0  00000-0 0  9997
2 37138  64.7081 306.2693 0034548 168.8795 284.3907  2.13106190 51458
COSMOS 2464 (736)       
1 37139U 10041C   17102.60513414 -.00000023  00000-0  00000-0 0  9990
2 37139  64.7164 306.2731 0024751  15.9163 154.7627  2.13102578 51444
COSMOS 2471 (701K)      
1 37372U 11009A   17102.61959774 -.00000027  00000-0  00000-0 0  9992
2 37372  65.3711  66.8495 0008417 247.7594 125.7327  2.13107551 47657
COSMOS 2474 (742)       
1 37829U 11055A   17102.48901124  .00000021  00000-0  00000-0 0  9994
2 37829  64.5036 186.3598 0008505 248.8763 355.9210  2.13101874 43011
COSMOS 2476 (744)       
1 37867U 11064A   17102.65021265  .00000022  00000-0  00000-0 0  9995
2 37867  64.4829 186.4282 0017772 244.2066 170.1822  2.13101967 42372
COSMOS 2477 (745)       
1 37868U 11064B   17102.69269819  .00000022  00000-0  00000-0 0  9999
2 37868  64.4917 186.4704 0015595 245.8871  20.2542  2.13101734 42323
COSMOS 2475 (743)       
1 37869U 11064C   17102.52298145  .00000021  00000-0  00000-0 0  9995
2 37869  64.4984 186.4659 0020568 272.0152 180.2823  2.13101844 42339
COSMOS 2485 (747)       
1 39155U 13019A   17102.64960191  .00000022  00000-0  00000-0 0  9998
2 39155  64.6524 186.4431 0018133 239.2167 219.7485  2.13101948 30845
COSMOS 2492 (754)       
1 39620U 14012A   17102.82920649 -.00000026  00000-0  10000-3 0  9992
2 39620  65.2625  66.8418 0017524 328.4021 302.3626  2.13103395 23790
COSMOS 2500 (755)       
1 40001U 14032A   17102.74033839 -.00000027  00000-0  00000-0 0  9993
2 40001  65.2039  66.8445 0005846 233.5976 192.1507  2.13102836 22019
COSMOS 2501 (702K)      
1 40315U 14075A   17102.68203027 -.00000025  00000-0  00000-0 0  9997
2 40315  64.4434 307.6362 0013439 206.6515 341.2895  2.13098439 18417
COSMOS 2514 (751)       
1 41330U 16008A   17102.62993954 -.00000028  00000-0  00000-0 0  9995
2 41330  65.0035  67.0114 0009331 233.6816 287.1982  2.13103366  9175
COSMOS 2516 (753)       
1 41554U 16032A   17102.69879877 -.00000024  00000-0  00000-0 0  9990
2 41554  64.6600 307.3820 0009467 217.5352 249.1290  2.13101637  6789
